[{"OBJECT_NAME":"STARLINK-34752","OBJECT_ID":"2025-240H","EPOCH":"2025-12-13T14:27:07.631424","MEAN_MOTION":15.30198981,"ECCENTRICITY":0.00012307,"INCLINATION":53.16,"RA_OF_ASC_NODE":102.9924,"ARG_OF_PERICENTER":89.7381,"MEAN_ANOMALY":270.3761,"EPHEMERIS_TYPE":0,"CLASSIFICATION_TYPE":"U","NORAD_CAT_ID":66153,"ELEMENT_SET_NO":999,"REV_AT_EPOCH":880,"BSTAR":0.00042566668,"MEAN_MOTION_DOT":0.00012268,"MEAN_MOTION_DDOT":0},{"OBJECT_NAME":"STARLINK-34625","OBJECT_ID":"2025-240J","EPOCH":"2025-12-14T07:12:51.005376","MEAN_MOTION":15.3018628,"ECCENTRICITY":9.859e-5,"INCLINATION":53.1627,"RA_OF_ASC_NODE":99.5309,"ARG_OF_PERICENTER":111.8527,"MEAN_ANOMALY":248.2579,"EPHEMERIS_TYPE":0,"CLASSIFICATION_TYPE":"U","NORAD_CAT_ID":66154,"ELEMENT_SET_NO":999,"REV_AT_EPOCH":896,"BSTAR":0.00060034385,"MEAN_MOTION_DOT":0.00017456,"MEAN_MOTION_DDOT":0},{"OBJECT_NAME":"STARLINK-35580","OBJECT_ID":"2025-240K","EPOCH":"2025-12-14T08:18:01.841760","MEAN_MOTION":15.30186658,"ECCENTRICITY":6.832e-5,"INCLINATION":53.1591,"RA_OF_ASC_NODE":99.101,"ARG_OF_PERICENTER":92.969,"MEAN_ANOMALY":267.1389,"EPHEMERIS_TYPE":0,"CLASSIFICATION_TYPE":"U","NORAD_CAT_ID":66155,"ELEMENT_SET_NO":999,"REV_AT_EPOCH":892,"BSTAR":0.0010938966,"MEAN_MOTION_DOT":0.00032166,"MEAN_MOTION_DDOT":0},{"OBJECT_NAME":"STARLINK-35621","OBJECT_ID":"2025-240L","EPOCH":"2025-12-14T01:16:23.475936","MEAN_MOTION":15.30191291,"ECCENTRICITY":0.00011549,"INCLINATION":53.1619,"RA_OF_ASC_NODE":100.8282,"ARG_OF_PERICENTER":87.4159,"MEAN_ANOMALY":272.6974,"EPHEMERIS_TYPE":0,"CLASSIFICATION_TYPE":"U","NORAD_CAT_ID":66156,"ELEMENT_SET_NO":999,"REV_AT_EPOCH":887,"BSTAR":0.0014634815,"MEAN_MOTION_DOT":0.00043226,"MEAN_MOTION_DDOT":0},{"OBJECT_NAME":"STARLINK-35594","OBJECT_ID":"2025-240M","EPOCH":"2025-12-14T00:00:04.000320","MEAN_MOTION":15.30171357,"ECCENTRICITY":0.00012105,"INCLINATION":53.1586,"RA_OF_ASC_NODE":100.5339,"ARG_OF_PERICENTER":86.9026,"MEAN_ANOMALY":254.4677,"EPHEMERIS_TYPE":0,"CLASSIFICATION_TYPE":"U","NORAD_CAT_ID":66157,"ELEMENT_SET_NO":999,"REV_AT_EPOCH":581,"BSTAR":0.00014115086,"MEAN_MOTION_DOT":3.82e-5,"MEAN_MOTION_DDOT":0},{"OBJECT_NAME":"STARLINK-35587","OBJECT_ID":"2025-240N","EPOCH":"2025-12-14T06:00:02.999808","MEAN_MOTION":15.30164899,"ECCENTRICITY":0.00011064,"INCLINATION":53.1597,"RA_OF_ASC_NODE":99.7402,"ARG_OF_PERICENTER":87.8362,"MEAN_ANOMALY":5.2535,"EPHEMERIS_TYPE":0,"CLASSIFICATION_TYPE":"U","NORAD_CAT_ID":66158,"ELEMENT_SET_NO":999,"REV_AT_EPOCH":566,"BSTAR":0.0020817422,"MEAN_MOTION_DOT":0.00061742,"MEAN_MOTION_DDOT":0},{"OBJECT_NAME":"STARLINK-35586","OBJECT_ID":"2025-240P","EPOCH":"2025-12-14T01:19:26.028768","MEAN_MOTION":15.30199231,"ECCENTRICITY":0.00018985,"INCLINATION":53.1609,"RA_OF_ASC_NODE":100.8372,"ARG_OF_PERICENTER":84.05,"MEAN_ANOMALY":276.0717,"EPHEMERIS_TYPE":0,"CLASSIFICATION_TYPE":"U","NORAD_CAT_ID":66159,"ELEMENT_SET_NO":999,"REV_AT_EPOCH":887,"BSTAR":0.0010762012,"MEAN_MOTION_DOT":0.0003165,"MEAN_MOTION_DDOT":0},{"OBJECT_NAME":"STARLINK-35636","OBJECT_ID":"2025-240Q","EPOCH":"2025-12-14T07:34:07.560192","MEAN_MOTION":15.30200331,"ECCENTRICITY":0.00018584,"INCLINATION":53.1616,"RA_OF_ASC_NODE":99.6205,"ARG_OF_PERICENTER":81.789,"MEAN_ANOMALY":278.3321,"EPHEMERIS_TYPE":0,"CLASSIFICATION_TYPE":"U","NORAD_CAT_ID":66160,"ELEMENT_SET_NO":999,"REV_AT_EPOCH":891,"BSTAR":0.00070106464,"MEAN_MOTION_DOT":0.00020462,"MEAN_MOTION_DDOT":0},{"OBJECT_NAME":"STARLINK-35635","OBJECT_ID":"2025-240R","EPOCH":"2025-12-14T06:00:02.999808","MEAN_MOTION":15.30155174,"ECCENTRICITY":0.00012715,"INCLINATION":53.1598,"RA_OF_ASC_NODE":99.7515,"ARG_OF_PERICENTER":81.0189,"MEAN_ANOMALY":6.2564,"EPHEMERIS_TYPE":0,"CLASSIFICATION_TYPE":"U","NORAD_CAT_ID":66161,"ELEMENT_SET_NO":999,"REV_AT_EPOCH":585,"BSTAR":0.0021258124,"MEAN_MOTION_DOT":0.00063049,"MEAN_MOTION_DDOT":0},{"OBJECT_NAME":"STARLINK-35633","OBJECT_ID":"2025-240S","EPOCH":"2025-12-14T08:21:04.167360","MEAN_MOTION":15.30190231,"ECCENTRICITY":0.00010352,"INCLINATION":53.1597,"RA_OF_ASC_NODE":99.1034,"ARG_OF_PERICENTER":87.4157,"MEAN_ANOMALY":272.6962,"EPHEMERIS_TYPE":0,"CLASSIFICATION_TYPE":"U","NORAD_CAT_ID":66162,"ELEMENT_SET_NO":999,"REV_AT_EPOCH":892,"BSTAR":0.0016658468,"MEAN_MOTION_DOT":0.00049291,"MEAN_MOTION_DDOT":0},{"OBJECT_NAME":"STARLINK-35607","OBJECT_ID":"2025-240T","EPOCH":"2025-12-14T06:39:26.410464","MEAN_MOTION":15.30174657,"ECCENTRICITY":6.97e-5,"INCLINATION":53.1591,"RA_OF_ASC_NODE":99.3737,"ARG_OF_PERICENTER":83.0004,"MEAN_ANOMALY":277.1076,"EPHEMERIS_TYPE":0,"CLASSIFICATION_TYPE":"U","NORAD_CAT_ID":66163,"ELEMENT_SET_NO":999,"REV_AT_EPOCH":891,"BSTAR":0.0011566932,"MEAN_MOTION_DOT":0.00034029,"MEAN_MOTION_DDOT":0},{"OBJECT_NAME":"STARLINK-35614","OBJECT_ID":"2025-240U","EPOCH":"2025-12-14T07:37:09.808896","MEAN_MOTION":15.30192806,"ECCENTRICITY":7.024e-5,"INCLINATION":53.1623,"RA_OF_ASC_NODE":99.6236,"ARG_OF_PERICENTER":13.5167,"MEAN_ANOMALY":346.5852,"EPHEMERIS_TYPE":0,"CLASSIFICATION_TYPE":"U","NORAD_CAT_ID":66164,"ELEMENT_SET_NO":999,"REV_AT_EPOCH":891,"BSTAR":0.00087846141,"MEAN_MOTION_DOT":0.00025743,"MEAN_MOTION_DDOT":0},{"OBJECT_NAME":"STARLINK-35575","OBJECT_ID":"2025-240V","EPOCH":"2025-12-14T07:26:31.698240","MEAN_MOTION":15.30187959,"ECCENTRICITY":9.281e-5,"INCLINATION":53.162,"RA_OF_ASC_NODE":99.578,"ARG_OF_PERICENTER":78.9294,"MEAN_ANOMALY":281.1811,"EPHEMERIS_TYPE":0,"CLASSIFICATION_TYPE":"U","NORAD_CAT_ID":66165,"ELEMENT_SET_NO":999,"REV_AT_EPOCH":891,"BSTAR":0.0006153386,"MEAN_MOTION_DOT":0.00017903,"MEAN_MOTION_DDOT":0},{"OBJECT_NAME":"STARLINK-35624","OBJECT_ID":"2025-240W","EPOCH":"2025-12-13T14:36:04.820832","MEAN_MOTION":15.30194691,"ECCENTRICITY":0.000108,"INCLINATION":53.1602,"RA_OF_ASC_NODE":102.306,"ARG_OF_PERICENTER":70.5774,"MEAN_ANOMALY":289.5344,"EPHEMERIS_TYPE":0,"CLASSIFICATION_TYPE":"U","NORAD_CAT_ID":66166,"ELEMENT_SET_NO":999,"REV_AT_EPOCH":881,"BSTAR":0.00070107929,"MEAN_MOTION_DOT":0.00020459,"MEAN_MOTION_DDOT":0},{"OBJECT_NAME":"STARLINK-35641","OBJECT_ID":"2025-240X","EPOCH":"2025-12-14T08:04:21.371808","MEAN_MOTION":15.30190653,"ECCENTRICITY":0.00014831,"INCLINATION":53.1594,"RA_OF_ASC_NODE":99.0318,"ARG_OF_PERICENTER":84.991,"MEAN_ANOMALY":275.1261,"EPHEMERIS_TYPE":0,"CLASSIFICATION_TYPE":"U","NORAD_CAT_ID":66167,"ELEMENT_SET_NO":999,"REV_AT_EPOCH":892,"BSTAR":0.0010074272,"MEAN_MOTION_DOT":0.00029588,"MEAN_MOTION_DDOT":0},{"OBJECT_NAME":"STARLINK-35578","OBJECT_ID":"2025-240Y","EPOCH":"2025-12-14T08:28:40.049184","MEAN_MOTION":15.30192464,"ECCENTRICITY":0.00011433,"INCLINATION":53.1597,"RA_OF_ASC_NODE":99.1341,"ARG_OF_PERICENTER":93.1812,"MEAN_ANOMALY":266.9319,"EPHEMERIS_TYPE":0,"CLASSIFICATION_TYPE":"U","NORAD_CAT_ID":66168,"ELEMENT_SET_NO":999,"REV_AT_EPOCH":892,"BSTAR":0.0011182224,"MEAN_MOTION_DOT":0.00032898,"MEAN_MOTION_DDOT":0}]
