STARLINK-34752          
1 66153U 25240H   25347.60217166  .00012268  00000+0  42567-3 0  9999
2 66153  53.1600 102.9924 0001230  89.7381 270.3761 15.30198981  8804
STARLINK-34625          
1 66154U 25240J   25348.30059034  .00017456  00000+0  60034-3 0  9999
2 66154  53.1627  99.5309 0000985 111.8527 248.2579 15.30186280  8964
STARLINK-35580          
1 66155U 25240K   25348.34585465  .00032166  00000+0  10939-2 0  9999
2 66155  53.1591  99.1010 0000683  92.9690 267.1389 15.30186658  8929
STARLINK-35621          
1 66156U 25240L   25348.05304949  .00043226  00000+0  14635-2 0  9990
2 66156  53.1619 100.8282 0001154  87.4159 272.6974 15.30191291  8879
STARLINK-35594          
1 66157U 25240M   25348.00004630  .00003820  00000+0  14115-3 0  9990
2 66157  53.1586 100.5339 0001210  86.9026 254.4677 15.30171357  5813
STARLINK-35587          
1 66158U 25240N   25348.25003472  .00061742  00000+0  20817-2 0  9993
2 66158  53.1597  99.7402 0001106  87.8362   5.2535 15.30164899  5664
STARLINK-35586          
1 66159U 25240P   25348.05516237  .00031650  00000+0  10762-2 0  9993
2 66159  53.1609 100.8372 0001898  84.0500 276.0717 15.30199231  8874
STARLINK-35636          
1 66160U 25240Q   25348.31536528  .00020462  00000+0  70106-3 0  9997
2 66160  53.1616  99.6205 0001858  81.7890 278.3321 15.30200331  8911
STARLINK-35635          
1 66161U 25240R   25348.25003472  .00063049  00000+0  21258-2 0  9999
2 66161  53.1598  99.7515 0001271  81.0189   6.2564 15.30155174  5850
STARLINK-35633          
1 66162U 25240S   25348.34796490  .00049291  00000+0  16658-2 0  9990
2 66162  53.1597  99.1034 0001035  87.4157 272.6962 15.30190231  8928
STARLINK-35607          
1 66163U 25240T   25348.27738901  .00034029  00000+0  11567-2 0  9993
2 66163  53.1591  99.3737 0000697  83.0004 277.1076 15.30174657  8910
STARLINK-35614          
1 66164U 25240U   25348.31747464  .00025743  00000+0  87846-3 0  9990
2 66164  53.1623  99.6236 0000702  13.5167 346.5852 15.30192806  8918
STARLINK-35575          
1 66165U 25240V   25348.31008910  .00017903  00000+0  61534-3 0  9992
2 66165  53.1620  99.5780 0000928  78.9294 281.1811 15.30187959  8917
STARLINK-35624          
1 66166U 25240W   25347.60838913  .00020459  00000+0  70108-3 0  9995
2 66166  53.1602 102.3060 0001080  70.5774 289.5344 15.30194691  8816
STARLINK-35641          
1 66167U 25240X   25348.33635847  .00029588  00000+0  10074-2 0  9995
2 66167  53.1594  99.0318 0001483  84.9910 275.1261 15.30190653  8928
STARLINK-35578          
1 66168U 25240Y   25348.35324131  .00032898  00000+0  11182-2 0  9998
2 66168  53.1597  99.1341 0001143  93.1812 266.9319 15.30192464  8929
